{
    "links": {
        "self": "http://www.neowsapp.com/rest/v1/neo/3789414?api_key=iIulBulltgU6a56xZRHN4H3l9WmuAYTsLGpBGhQ2"
    },
    "id": "3789414",
    "neo_reference_id": "3789414",
    "name": "(2017 VR14)",
    "designation": "2017 VR14",
    "nasa_jpl_url": "http://ssd.jpl.nasa.gov/sbdb.cgi?sstr=3789414",
    "absolute_magnitude_h": 25.7,
    "estimated_diameter": {
        "kilometers": {
            "estimated_diameter_min": 0.0192555078,
            "estimated_diameter_max": 0.0430566244
        },
        "meters": {
            "estimated_diameter_min": 19.2555078188,
            "estimated_diameter_max": 43.0566244241
        },
        "miles": {
            "estimated_diameter_min": 0.0119648141,
            "estimated_diameter_max": 0.0267541378
        },
        "feet": {
            "estimated_diameter_min": 63.1742402722,
            "estimated_diameter_max": 141.2618956756
        }
    },
    "is_potentially_hazardous_asteroid": false,
    "close_approach_data": [
        {
            "close_approach_date": "1944-12-02",
            "close_approach_date_full": "1944-Dec-02 11:53",
            "epoch_date_close_approach": -791467620000,
            "relative_velocity": {
                "kilometers_per_second": "5.5486118881",
                "kilometers_per_hour": "19975.0027971746",
                "miles_per_hour": "12411.6899324999"
            },
            "miss_distance": {
                "astronomical": "0.0566984483",
                "lunar": "22.0556963887",
                "kilometers": "8481967.097985121",
                "miles": "5270449.9606758298"
            },
            "orbiting_body": "Earth"
        },
        {
            "close_approach_date": "2017-12-04",
            "close_approach_date_full": "2017-Dec-04 09:32",
            "epoch_date_close_approach": 1512379920000,
            "relative_velocity": {
                "kilometers_per_second": "5.4647198067",
                "kilometers_per_hour": "19672.9913042636",
                "miles_per_hour": "12224.0317356965"
            },
            "miss_distance": {
                "astronomical": "0.0589386543",
                "lunar": "22.9271365227",
                "kilometers": "8817097.143946341",
                "miles": "5478690.1150118658"
            },
            "orbiting_body": "Earth"
        },
        {
            "close_approach_date": "2177-11-07",
            "close_approach_date_full": "2177-Nov-07 07:56",
            "epoch_date_close_approach": 6559170960000,
            "relative_velocity": {
                "kilometers_per_second": "11.872138579",
                "kilometers_per_hour": "42739.6988845145",
                "miles_per_hour": "26556.7867874362"
            },
            "miss_distance": {
                "astronomical": "0.2333148689",
                "lunar": "90.7594840021",
                "kilometers": "34903407.426769243",
                "miles": "21687971.6903838334"
            },
            "orbiting_body": "Earth"
        }
    ],
    "orbital_data": {
        "orbit_id": "3",
        "orbit_determination_date": "2017-12-08 06:19:31",
        "first_observation_date": "2017-11-13",
        "last_observation_date": "2017-12-08",
        "data_arc_in_days": 25,
        "observations_used": 23,
        "orbit_uncertainty": "7",
        "minimum_orbit_intersection": ".0584255",
        "jupiter_tisserand_invariant": "3.701",
        "epoch_osculation": "2459000.5",
        "eccentricity": ".477794530994132",
        "semi_major_axis": "1.98912493217847",
        "inclination": "2.065565556879316",
        "ascending_node_longitude": "39.7269692855647",
        "orbital_period": "1024.687688726685",
        "perihelion_distance": "1.038731918119523",
        "perihelion_argument": "38.57580322469349",
        "aphelion_distance": "2.939517946237417",
        "perihelion_time": "2459123.117204630819",
        "mean_anomaly": "316.9213193905478",
        "mean_motion": ".3513265592634858",
        "equinox": "J2000",
        "orbit_class": {
            "orbit_class_type": "AMO",
            "orbit_class_description": "Near-Earth asteroid orbits similar to that of 1221 Amor",
            "orbit_class_range": "1.017 AU < q (perihelion) < 1.3 AU"
        }
    },
    "is_sentry_object": false
}